ONEWEB-0229             
1 48779U 21045N   24171.72550790  .00000114  00000+0  26847-3 0  9992
2 48779  87.9037  43.9688 0002042  83.8470 276.2893 13.15550075148762
ONEWEB-0228             
1 48780U 21045P   24171.66492589 -.00031080  00000+0 -83219-1 0  9990
2 48780  87.9037  43.9564 0001906  81.9466 278.1880 13.15264253148676
ONEWEB-0232             
1 48781U 21045Q   24171.65737807  .00000015  00000+0  53401-5 0  9991
2 48781  87.9029  43.9789 0002010  81.9683 278.1675 13.15549446148992
ONEWEB-0231             
1 48782U 21045R   24171.71125801  .00000116  00000+0  27428-3 0  9994
2 48782  87.9045  43.9983 0002132  80.2215 279.9156 13.15549370148691
ONEWEB-0238             
1 48784U 21045T   24171.68509959 -.00001264  00000+0 -33913-2 0  9994
2 48784  87.9036  43.9803 0001673  80.7946 279.3373 13.15551839148721
ONEWEB-0246             
1 48786U 21045V   24171.68907694  .00000032  00000+0  51203-4 0  9998
2 48786  87.9036  43.9515 0002038  84.6715 275.4647 13.15549026148621
